IXPE                    
1 49954U 21121A   24184.91667824  .00008090  00000+0  59194-3 0  9997
2 49954   0.2309 277.0821 0009374 154.9184 359.6788 14.98398549  5796
